GALAXY 19 (G-19)        
1 33376U 08045A   20318.91523059 -.00000136  00000-0  00000-0 0  9998
2 33376   0.0151 293.2700 0002826 297.2777  55.4458  1.00271765 44472
ASTRA 1M                
1 33436U 08057A   20319.14304267  .00000123  00000-0  00000-0 0  9997
2 33436   0.0534 102.0122 0003508  89.8983 292.5053  1.00272187 25272
CIEL-2                  
1 33453U 08063A   20318.90877514  .00000061  00000-0  00000-0 0  9997
2 33453   0.0544 103.6372 0002910 133.9358  14.2401  1.00272706 43687
EUTELSAT HOT BIRD 13C   
1 33459U 08065A   20319.36785532  .00000090  00000-0  00000-0 0  9996
2 33459   0.0212   2.4015 0002595 196.8455   0.1268  1.00272515 26886
EUTELSAT 48D            
1 33460U 08065B   20319.08769623  .00000127  00000-0  00000-0 0  9991
2 33460   0.1182  98.8113 0003231 126.2815 268.2469  1.00271787 43494
FENGYUN 2E              
1 33463U 08066A   20318.00512084 -.00000198  00000-0  00000-0 0  9992
2 33463   4.6498  68.0304 0003333 299.0963 133.9502  1.00269117 43617
EXPRESS-AM44            
1 33595U 09007A   20319.57831000 -.00000086  00000-0  00000-0 0  9995
2 33595   0.0073 267.0549 0000640  87.9534 256.3414  1.00271484 43083
NSS-9                   
1 33749U 09008A   20319.11465216  .00000075  00000-0  00000-0 0  9996
2 33749   0.0247 310.9426 0002090 285.4170  41.6860  1.00272254 43065
EUTELSAT 33E            
1 33750U 09008B   20319.08473020  .00000159  00000-0  00000-0 0  9999
2 33750   0.0581  11.5992 0003763 216.2331 249.4257  1.00270133 42981
TELSTAR 11N             
1 34111U 09009A   20319.08382565 -.00000248  00000-0  00000-0 0  9995
2 34111   0.0183 294.3146 0002240 282.6250 189.3165  1.00267975 25777
EUTELSAT 10A            
1 34710U 09016A   20319.15190193  .00000071  00000-0  00000-0 0  9993
2 34710   0.0691   6.7677 0005412 222.9223 248.7298  1.00270223 20795
WGS F2 (USA 204)        
1 34713U 09017A   20318.83313523  .00000056  00000-0  00000-0 0  9998
2 34713   0.0184 258.0843 0007898 315.8409 199.1001  1.00259853 42476
SES-7 (PROTOSTAR 2)     
1 34941U 09027A   20319.02793956 -.00000342  00000-0  00000-0 0  9995
2 34941   0.0768  94.7041 0001285 162.4550 274.7692  1.00270807 42152
MEASAT-3A               
1 35362U 09032A   20319.02453736 -.00000239  00000-0  00000-0 0  9993
2 35362   0.0384 165.4866 0003251  67.3443 281.1284  1.00270519 41781
GOES 14                 
1 35491U 09033A   20318.62440088 -.00000090  00000-0  00000-0 0  9993
2 35491   0.2398 265.4071 0013365 314.8400 313.4688  1.00271547 41644
SIRIUS FM-5             
1 35493U 09034A   20319.47517024 -.00000197  00000-0  00000-0 0  9993
2 35493   0.0180 298.2364 0000375 145.3042  55.4352  1.00271244 26196
TERRESTAR-1             
1 35496U 09035A   20318.91243904 -.00000053  00000-0  00000-0 0  9999
2 35496   2.6116  22.5832 0002836 209.8251  38.5581  1.00272076 41665
ASIASAT 5               
1 35696U 09042A   20319.18799291 -.00000305  00000-0  00000-0 0  9994
2 35696   0.0726 100.9833 0001809 106.9718  14.0132  1.00271421 41228
JCSAT-RA (JCSAT-12)     
1 35755U 09044A   20318.53755649 -.00000028  00000-0  00000-0 0  9991
2 35755   0.0557 101.5332 0001714 133.2552 180.7470  1.00271294 41135
OPTUS D3                
1 35756U 09044B   20319.10915630 -.00000144  00000-0  00000-0 0  9993
2 35756   0.0525  61.1807 0002574 185.1337   2.6875  1.00270847 41090
PALAPA D                
1 35812U 09046A   20318.53864177 -.00000355  00000-0  00000-0 0  9997
2 35812   0.5201  94.5842 0002885 177.5917  87.8237  1.00272084 41207
NIMIQ 5                 
1 35873U 09050A   20319.10674625 -.00000253  00000-0  00000-0 0  9997
2 35873   0.0236 274.0900 0003133 321.9596 143.3384  1.00271084 40885
AMAZONAS 2              
1 35942U 09054A   20318.13277090 -.00000278  00000-0  00000-0 0  9992
2 35942   0.0192 139.2091 0003571  51.5559 208.7208  1.00263838 40707
COMSATBW-1              
1 35943U 09054B   20319.16228303  .00000027  00000-0  00000-0 0  9991
2 35943   0.0654  95.8028 0002482 125.4908 313.9029  1.00268628 40833
NSS-12                  
1 36032U 09058A   20319.08944095  .00000074  00000-0  00000-0 0  9991
2 36032   0.0358  85.9241 0002809 157.3817 259.5751  1.00272967 40453
THOR 6                  
1 36033U 09058B   20319.07792580 -.00000007  00000-0  00000-0 0  9998
2 36033   0.0211 109.0222 0001525 122.5381 209.2769  1.00270310 40544
INTELSAT 14 (IS-14)     
1 36097U 09064A   20319.09563490 -.00000270  00000-0  00000-0 0  9995
2 36097   0.0028 336.4546 0002562 259.1063 167.5446  1.00273421 40219
EUTELSAT 36B            
1 36101U 09065A   20319.44405373  .00000158  00000-0  00000-0 0  9990
2 36101   0.0694   4.7241 0004535 222.5261  22.5326  1.00268641 40256
INTELSAT 15 (IS-15)     
1 36106U 09067A   20319.45399865 -.00000183  00000-0  00000-0 0  9995
2 36106   0.0155 336.2003 0001967 258.5770  67.8453  1.00271460 20830
WGS F3 (USA 211)        
1 36108U 09068A   20319.10118931 -.00000094  00000-0  00000-0 0  9994
2 36108   0.0246 283.7022 0000148 312.7400 201.6284  1.00268770 26132
DIRECTV 12              
1 36131U 09075A   20319.17984591 -.00000100  00000-0  00000-0 0  9996
2 36131   0.0406 120.3463 0000155  22.8693 232.5740  1.00271308 26100
BEIDOU 3                
1 36287U 10001A   20319.23103015 -.00000278  00000-0  00000-0 0  9996
2 36287   1.5832  35.8480 0004283 124.5502 117.0358  1.00267523 39701
RADUGA-1M 2             
1 36358U 10002A   20319.45399865 -.00000182  00000-0  00000-0 0  9994
2 36358   0.0505 259.3280 0002217  18.5551  24.5985  1.00272955 29637
SDO                     
1 36395U 10005A   20318.48337250 -.00000030  00000-0  00000-0 0  9992
2 36395  30.5769 118.7988 0000382  29.0678 337.6333  1.00272087 39596
INTELSAT 16 (IS-16)     
1 36397U 10006A   20319.42180853 -.00000241  00000-0  00000-0 0  9999
2 36397   0.0170 280.3663 0001981 311.8529 257.4062  1.00270768 39373
GOES 15                 
1 36411U 10008A   20319.19216135  .00000053  00000-0  00000-0 0  9995
2 36411   0.2357 100.4526 0001354 304.3748 310.5088  1.00282609 39201
ECHOSTAR 14             
1 36499U 10010A   20318.61306817  .00000004  00000-0  00000-0 0  9993
2 36499   0.0160 286.8964 0002190 316.8625 271.2578  1.00269865 26092
SES-1                   
1 36516U 10016A   20319.23799461 -.00000111  00000-0  00000-0 0  9999
2 36516   0.0101 311.5569 0002310 282.4629 164.4790  1.00270059 38572
ASTRA 3B                
1 36581U 10021A   20319.08281101  .00000140  00000-0  00000-0 0  9998
2 36581   0.0342   0.2344 0002882 236.3182 230.4339  1.00271710 38411
COMSATBW-2              
1 36582U 10021B   20319.08938281  .00000092  00000-0  00000-0 0  9993
2 36582   0.0680  94.9006 0002025 150.6003 213.5310  1.00272713 38494
BADR-5                  
1 36592U 10025A   20319.15504243  .00000148  00000-0  00000-0 0  9995
2 36592   0.0136 110.4716 0003943  79.2615 305.7690  1.00272165 32757
COMS 1                  
1 36744U 10032A   20318.52944354 -.00000340  00000-0  00000-0 0  9998
2 36744   0.0331 102.1181 0001073  99.5539 170.2259  1.00280908 30612
ARABSAT-5A              
1 36745U 10032B   20318.58169795  .00000157  00000-0  00000-0 0  9998
2 36745   0.0618  30.5622 0004584 189.4336  73.0957  1.00274091 38179
ECHOSTAR 15             
1 36792U 10034A   20319.42468733 -.00000279  00000-0  00000-0 0  9996
2 36792   0.0075 330.7548 0001798 229.4276 305.0612  1.00272031 37876
BEIDOU 5                
1 36828U 10036A   20319.53224936 -.00000038  00000-0  00000-0 0  9998
2 36828  54.1638 181.5882 0100243 234.1149 309.7081  1.00269634 37754
NILESAT 201             
1 36830U 10037A   20319.07670448 -.00000054  00000-0  00000-0 0  9992
2 36830   0.0527 151.5341 0003710  68.2948 214.4366  1.00271292 37891
RASCOM-QAF 1R           
1 36831U 10037B   20319.15188403  .00000022  00000-0  00000-0 0  9991
2 36831   0.0151 316.2403 0005862 279.4545 235.6167  1.00271055 37838
AEHF-1 (USA 214)        
1 36868U 10039A   20319.15068062  .00000031  00000-0  00000-0 0  9991
2 36868   3.1024  95.0566 0002125  67.2675 309.6326  1.00272438 33199
CHINASAT 6A (ZX 6A)     
1 37150U 10042A   20319.51576291 -.00000351  00000-0  00000-0 0  9994
2 37150   0.0238 180.0278 0002992   7.5823 177.2127  1.00268796 37448
QZS-1 (MICHIBIKI-1)     
1 37158U 10045A   20318.82092802 -.00000048  00000-0  00000-0 0  9992
2 37158  41.7579 141.4859 0749133 270.4104  77.8719  1.00278117 37260
XM-5                    
1 37185U 10053A   20319.47517024 -.00000202  00000-0  00000-0 0  9993
2 37185   0.0204 299.6345 0001850 117.6117  82.6526  1.00271388 37029
BSAT-3B                 
1 37207U 10056B   20319.18243859 -.00000348  00000-0  00000-0 0  9992
2 37207   0.0376 328.2703 0003261 315.2919 305.7405  1.00272080 31709
BEIDOU 6                
1 37210U 10057A   20319.22865310 -.00000109  00000-0  00000-0 0  9999
2 37210   0.7805  42.2304 0007228 181.1403  72.7958  1.00271373 36817
SKYTERRA 1              
1 37218U 10061A   20319.23799461 -.00000115  00000-0  00000-0 0  9993
2 37218   2.1261   6.8631 0002625 190.8200 200.4987  1.00270997 36738
ZHONGXING-20A           
1 37234U 10064A   20319.46219882 -.00000347  00000-0  00000-0 0  9990
2 37234   1.2195  95.1069 0001946 170.8595  80.9125  1.00272853 36512
HYLAS 1                 
1 37237U 10065A   20319.25915594 -.00000140  00000-0  00000-0 0  9995
2 37237   0.4840  95.1243 0001919 131.4084  77.0142  1.00271691 36518
INTELSAT 17 (IS-17)     
1 37238U 10065B   20319.45016025  .00000001  00000-0  00000-0 0  9994
2 37238   0.0315 138.4579 0002761  99.8576  43.7672  1.00270329 32931
BEIDOU 7                
1 37256U 10068A   20318.58824038 -.00000228  00000-0  00000-0 0  9993
2 37256  51.2352 296.5658 0081382 215.7513 231.5752  1.00263649 36331
EUTELSAT KA-SAT 9A      
1 37258U 10069A   20319.15172747  .00000065  00000-0  00000-0 0  9991
2 37258   0.0370 322.8783 0000660 187.7279 326.8002  1.00271345 23552
